{"type": "FeatureCollection", "features": [{"type": "Feature", "properties": {"ADM3_EN": "Amlan (Ayuquitan)", "ADM3_PCODE": "PH0704601", "ADM2_EN": "Negros Oriental", "ADM2_PCODE": "PH07046", "ADM1_EN": "Region VII (Central Visayas)", "ADM1_PCODE": "PH07", "ADM0_EN": "Philippines (the)", "ADM0_PCODE": "PH", "date": "2022-11-09", "validOn": "2023-11-06", "validTo": null, "ADM3_REF": null, "ADM3ALT1EN": "Ayuquitan", "Shape_Leng": 0.394583796308, "Shape_Area": 0.00487913519469, "AREA_SQKM": 59.2674955782, "psgc_id": "PH0704601", "psgc_code": "0704601000", "psgc_name": "Amlan", "psgc_status": "matched", "match_confidence": 1.0, "psgc_type": "municipality", "match_method": "exact", "name": "Amlan", "area_type": "municipality", "center": [9.43154627980005, 123.18694893990009]}, "geometry": {"type": "Polygon", "coordinates": [[[123.23696931600011, 9.441973567000048], [123.22324054100011, 9.448154300000056], [123.19693390300006, 9.43827335800006], [123.16628401300011, 9.375627348000023], [123.11618665600008, 9.386310416000072], [123.13992360000009, 9.411166326000057], [123.14333021400012, 9.427092767000033], [123.18141055000001, 9.479421398000056], [123.22824129000003, 9.465469751000057], [123.23696931600011, 9.441973567000048]]]}}, {"type": "Feature", "properties": {"ADM3_EN": "Ayungon", "ADM3_PCODE": "PH0704602", "ADM2_EN": "Negros Oriental", "ADM2_PCODE": "PH07046", "ADM1_EN": "Region VII (Central Visayas)", "ADM1_PCODE": "PH07", "ADM0_EN": "Philippines (the)", "ADM0_PCODE": "PH", "date": "2022-11-09", "validOn": "2023-11-06", "validTo": null, "ADM3_REF": null, "ADM3ALT1EN": null, "Shape_Leng": 0.77776412521, "Shape_Area": 0.0204841754313, "AREA_SQKM": 248.52165533, "psgc_id": "PH0704602", "psgc_code": "0704602000", "psgc_name": "Ayungon", "psgc_status": "matched", "match_confidence": 1.0, "psgc_type": "municipality", "match_method": "exact", "name": "Ayungon", "area_type": "municipality", "center": [9.839607289571477, 123.08480007276196]}, "geometry": {"type": "Polygon", "coordinates": [[[123.14204966400007, 9.89986258600004], [123.15118301500002, 9.854359934000058], [123.13813554900003, 9.84662992400007], [123.13949062100005, 9.837467907000075], [123.13169936400004, 9.838505601000065], [123.14366788100006, 9.81914961900003], [123.1420221300001, 9.802752676000068], [123.1342709590001, 9.802710415000035], [123.14129101100002, 9.79968184300003], [123.13753490500005, 9.794786943000076], [123.05892413900006, 9.80805745500004], [123.0275877790001, 9.79997501500003], [123.02379603600002, 9.804897374000063], [123.01577857100006, 9.79603501500003], [122.98609544300007, 9.78927309200003], [122.91410867600007, 9.82804438200003], [122.98320250300003, 9.912625363000075], [123.03330588000006, 9.901511976000052], [123.07612708400006, 9.904815128000052], [123.11848065400011, 9.890748247000033], [123.14204966400007, 9.89986258600004]]]}}, {"type": "Feature", "properties": {"ADM3_EN": "Bacong", "ADM3_PCODE": "PH0704603", "ADM2_EN": "Negros Oriental", "ADM2_PCODE": "PH07046", "ADM1_EN": "Region VII (Central Visayas)", "ADM1_PCODE": "PH07", "ADM0_EN": "Philippines (the)", "ADM0_PCODE": "PH", "date": "2022-11-09", "validOn": "2023-11-06", "validTo": null, "ADM3_REF": null, "ADM3ALT1EN": null, "Shape_Leng": 0.293026589753, "Shape_Area": 0.00332609999181, "AREA_SQKM": 40.4229473099, "psgc_id": "PH0704603", "psgc_code": "0704603000", "psgc_name": "Bacong", "psgc_status": "matched", "match_confidence": 1.0, "psgc_type": "municipality", "match_method": "exact", "name": "Bacong", "area_type": "municipality", "center": [9.250654493142909, 123.25088552128577]}, "geometry": {"type": "Polygon", "coordinates": [[[123.30152086600003, 9.275949610000055], [123.28634487800002, 9.215072100000043], [123.22814137500006, 9.23863300100004], [123.23283613900003, 9.243541317000052], [123.20082680900009, 9.246267143000068], [123.20500771600007, 9.259168671000054], [123.30152086600003, 9.275949610000055]]]}}, {"type": "Feature", "properties": {"ADM3_EN": "Basay", "ADM3_PCODE": "PH0704605", "ADM2_EN": "Negros Oriental", "ADM2_PCODE": "PH07046", "ADM1_EN": "Region VII (Central Visayas)", "ADM1_PCODE": "PH07", "ADM0_EN": "Philippines (the)", "ADM0_PCODE": "PH", "date": "2022-11-09", "validOn": "2023-11-06", "validTo": null, "ADM3_REF": null, "ADM3ALT1EN": null, "Shape_Leng": 0.587088771796, "Shape_Area": 0.0138406452663, "AREA_SQKM": 168.111456583, "psgc_id": "PH0704605", "psgc_code": "0704605000", "psgc_name": "Basay", "psgc_status": "matched", "match_confidence": 1.0, "psgc_type": "municipality", "match_method": "exact", "name": "Basay", "area_type": "municipality", "center": [9.444160756562553, 122.68098230068756]}, "geometry": {"type": "Polygon", "coordinates": [[[122.72141488300008, 9.376566917000048], [122.67419162300007, 9.379871974000025], [122.62658162900004, 9.420537103000072], [122.61060162400008, 9.42075191300006], [122.588891966, 9.444000570000071], [122.5924346380001, 9.463354540000068], [122.67264201100011, 9.550316107000071], [122.69116266900005, 9.522695654000074], [122.69737307100002, 9.523789648000047], [122.69439677300011, 9.500327156000026], [122.73004759900005, 9.467082983000068], [122.72870274400009, 9.446988582000074], [122.71026108, 9.416757497000049], [122.72265422200007, 9.408520509000027], [122.712945396, 9.38844403500002], [122.72141488300008, 9.376566917000048]]]}}, {"type": "Feature", "properties": {"ADM3_EN": "Bindoy (Payabon)", "ADM3_PCODE": "PH0704607", "ADM2_EN": "Negros Oriental", "ADM2_PCODE": "PH07046", "ADM1_EN": "Region VII (Central Visayas)", "ADM1_PCODE": "PH07", "ADM0_EN": "Philippines (the)", "ADM0_PCODE": "PH", "date": "2022-11-09", "validOn": "2023-11-06", "validTo": null, "ADM3_REF": null, "ADM3ALT1EN": "Payabon", "Shape_Leng": 0.600999235569, "Shape_Area": 0.0128990704986, "AREA_SQKM": 156.537329852, "psgc_id": "PH0704607", "psgc_code": "0704607000", "psgc_name": "Bindoy", "psgc_status": "matched", "match_confidence": 1.0, "psgc_type": "municipality", "match_method": "exact", "name": "Bindoy", "area_type": "municipality", "center": [9.767478086529453, 123.05830008617653]}, "geometry": {"type": "Polygon", "coordinates": [[[123.14126051900007, 9.796338942000034], [123.15177270400011, 9.780308924000053], [123.14419072300007, 9.770293897000045], [123.15689701100007, 9.721600226000021], [123.13271091600006, 9.705794879000052], [123.0450278830001, 9.720324821000077], [123.01815311700011, 9.734889525000028], [123.00998139700005, 9.751193268000065], [122.99045443000011, 9.763901021000038], [122.98433337300003, 9.755481640000028], [122.97939523000002, 9.759192399000028], [122.96957711800007, 9.782504128000028], [123.01577857100006, 9.79603501500003], [123.02379603600002, 9.804897374000063], [123.0275877790001, 9.79997501500003], [123.05892413900006, 9.80805745500004], [123.14126051900007, 9.796338942000034]]]}}, {"type": "Feature", "properties": {"ADM3_EN": "Dauin", "ADM3_PCODE": "PH0704609", "ADM2_EN": "Negros Oriental", "ADM2_PCODE": "PH07046", "ADM1_EN": "Region VII (Central Visayas)", "ADM1_PCODE": "PH07", "ADM0_EN": "Philippines (the)", "ADM0_PCODE": "PH", "date": "2022-11-09", "validOn": "2023-11-06", "validTo": null, "ADM3_REF": null, "ADM3ALT1EN": null, "Shape_Leng": 0.445275891524, "Shape_Area": 0.00664570364796, "AREA_SQKM": 80.7768587587, "psgc_id": "PH0704609", "psgc_code": "0704609000", "psgc_name": "Dauin", "psgc_status": "matched", "match_confidence": 1.0, "psgc_type": "municipality", "match_method": "exact", "name": "Dauin", "area_type": "municipality", "center": [9.173084513333384, 123.22656099150005]}, "geometry": {"type": "MultiPolygon", "coordinates": [[[[123.14526169400006, 9.248740095000073], [123.23283613900003, 9.243541317000052], [123.22814137500006, 9.23863300100004], [123.28634487800002, 9.215072100000043], [123.23076537100007, 9.140667946000065], [123.1844800990001, 9.208346848000076], [123.18678699100008, 9.21804374100003], [123.14526169400006, 9.248740095000073]]], [[[123.26777770600006, 9.083411020000028], [123.275159443, 9.077345918000049], [123.26813880200007, 9.071061059000044], [123.26777770600006, 9.083411020000028]]]]}}, {"type": "Feature", "properties": {"ADM3_EN": "Jimalalud", "ADM3_PCODE": "PH0704612", "ADM2_EN": "Negros Oriental", "ADM2_PCODE": "PH07046", "ADM1_EN": "Region VII (Central Visayas)", "ADM1_PCODE": "PH07", "ADM0_EN": "Philippines (the)", "ADM0_PCODE": "PH", "date": "2022-11-09", "validOn": "2023-11-06", "validTo": null, "ADM3_REF": null, "ADM3ALT1EN": null, "Shape_Leng": 0.500155464815, "Shape_Area": 0.0127626598611, "AREA_SQKM": 154.767198923, "psgc_id": "PH0704612", "psgc_code": "0704612000", "psgc_name": "Jimalalud", "psgc_status": "matched", "match_confidence": 1.0, "psgc_type": "municipality", "match_method": "exact", "name": "Jimalalud", "area_type": "municipality", "center": [10.003609847111168, 123.14548395633341]}, "geometry": {"type": "Polygon", "coordinates": [[[123.21867160200009, 9.999924565000072], [123.18252757200003, 9.952191121000055], [123.16997976200003, 9.950217827000074], [123.1390441320001, 9.959052979000035], [123.02071005100004, 10.019722260000037], [123.05782511100006, 10.076618548000056], [123.11164318100009, 10.04760417500006], [123.19028259400011, 10.027232584000046], [123.21867160200009, 9.999924565000072]]]}}, {"type": "Feature", "properties": {"ADM3_EN": "La Libertad", "ADM3_PCODE": "PH0704613", "ADM2_EN": "Negros Oriental", "ADM2_PCODE": "PH07046", "ADM1_EN": "Region VII (Central Visayas)", "ADM1_PCODE": "PH07", "ADM0_EN": "Philippines (the)", "ADM0_PCODE": "PH", "date": "2022-11-09", "validOn": "2023-11-06", "validTo": null, "ADM3_REF": null, "ADM3ALT1EN": null, "Shape_Leng": 0.534455296856, "Shape_Area": 0.0124941415103, "AREA_SQKM": 151.4822741, "psgc_id": "PH0704613", "psgc_code": "0704613000", "psgc_name": "La Libertad", "psgc_status": "matched", "match_confidence": 1.0, "psgc_type": "municipality", "match_method": "exact", "name": "La Libertad", "area_type": "municipality", "center": [10.049564189333378, 123.18171494788895]}, "geometry": {"type": "Polygon", "coordinates": [[[123.25245008600007, 10.06696248000003], [123.2265072020001, 10.01637574700004], [123.22818233800001, 10.003706063000038], [123.21867160200009, 9.999924565000072], [123.19028259400011, 10.027232584000046], [123.11164318100009, 10.04760417500006], [123.05782511100006, 10.076618548000056], [123.09742233100008, 10.14069106200003], [123.25245008600007, 10.06696248000003]]]}}, {"type": "Feature", "properties": {"ADM3_EN": "Mabinay", "ADM3_PCODE": "PH0704614", "ADM2_EN": "Negros Oriental", "ADM2_PCODE": "PH07046", "ADM1_EN": "Region VII (Central Visayas)", "ADM1_PCODE": "PH07", "ADM0_EN": "Philippines (the)", "ADM0_PCODE": "PH", "date": "2022-11-09", "validOn": "2023-11-06", "validTo": null, "ADM3_REF": null, "ADM3ALT1EN": null, "Shape_Leng": 0.973050617589, "Shape_Area": 0.0285183690062, "AREA_SQKM": 346.148370362, "psgc_id": "PH0704614", "psgc_code": "0704614000", "psgc_name": "Mabinay", "psgc_status": "matched", "match_confidence": 1.0, "psgc_type": "municipality", "match_method": "exact", "name": "Mabinay", "area_type": "municipality", "center": [9.71015535616005, 122.89972179920007]}, "geometry": {"type": "Polygon", "coordinates": [[[122.98609544300007, 9.78927309200003], [122.96957711800007, 9.782504128000028], [122.98433337300003, 9.755481640000028], [122.96675703000005, 9.731293238000035], [123.01935995600002, 9.69390829100007], [123.02547678700012, 9.611915041000032], [122.88069895000001, 9.610469046000048], [122.86469497100006, 9.622100987000067], [122.86407394800005, 9.635751844000026], [122.85230092000006, 9.627320161000057], [122.8487510870001, 9.647665156000073], [122.84255010400011, 9.645363119000024], [122.85150022800008, 9.654612799000063], [122.83840997800007, 9.675972241000068], [122.86542774000009, 9.684415504000071], [122.86498900400011, 9.695446657000048], [122.82821405200002, 9.700258315000042], [122.8265161280001, 9.705979107000076], [122.80423183000005, 9.70080798600003], [122.88211769000009, 9.791571794000049], [122.91009108600008, 9.774005182000053], [122.91858793400002, 9.791140960000064], [122.89808550400005, 9.809310142000072], [122.91410867600007, 9.82804438200003], [122.98609544300007, 9.78927309200003]]]}}, {"type": "Feature", "properties": {"ADM3_EN": "Manjuyod", "ADM3_PCODE": "PH0704615", "ADM2_EN": "Negros Oriental", "ADM2_PCODE": "PH07046", "ADM1_EN": "Region VII (Central Visayas)", "ADM1_PCODE": "PH07", "ADM0_EN": "Philippines (the)", "ADM0_PCODE": "PH", "date": "2022-11-09", "validOn": "2023-11-06", "validTo": null, "ADM3_REF": null, "ADM3ALT1EN": null, "Shape_Leng": 0.862491464031, "Shape_Area": 0.0105208392897, "AREA_SQKM": 127.698154756, "psgc_id": "PH0704615", "psgc_code": "0704615000", "psgc_name": "Manjuyod", "psgc_status": "matched", "match_confidence": 1.0, "psgc_type": "municipality", "match_method": "exact", "name": "Manjuyod", "area_type": "municipality", "center": [9.70574848788466, 123.06353862407698]}, "geometry": {"type": "MultiPolygon", "coordinates": [[[[122.88211769000009, 9.791571794000049], [122.90040582300003, 9.809817422000037], [122.91863969000008, 9.790955], [122.90929120600003, 9.773778641000035], [122.88211769000009, 9.791571794000049]]], [[[123.15597927700003, 9.720117906000041], [123.16074754800002, 9.706722627000033], [123.1487238840001, 9.653833557000041], [123.15699398700008, 9.632208349000052], [123.14496822500007, 9.652338335000024], [123.12416690000009, 9.657290863000071], [123.11154112700001, 9.650753141000052], [123.11736795400009, 9.643098112000075], [123.10895967300007, 9.633271610000065], [122.96675703000005, 9.731293238000035], [122.99045443000011, 9.763901021000038], [123.00998139700005, 9.751193268000065], [123.01815311700011, 9.734889525000028], [123.0450278830001, 9.720324821000077], [123.13271091600006, 9.705794879000052], [123.14142594400005, 9.717175230000066], [123.15597927700003, 9.720117906000041]]], [[[123.11777207600005, 9.649446271000045], [123.11705727900005, 9.649077393000027], [123.11689212700003, 9.649471711000047], [123.11777207600005, 9.649446271000045]]]]}}, {"type": "Feature", "properties": {"ADM3_EN": "Pamplona", "ADM3_PCODE": "PH0704616", "ADM2_EN": "Negros Oriental", "ADM2_PCODE": "PH07046", "ADM1_EN": "Region VII (Central Visayas)", "ADM1_PCODE": "PH07", "ADM0_EN": "Philippines (the)", "ADM0_PCODE": "PH", "date": "2022-11-09", "validOn": "2023-11-06", "validTo": null, "ADM3_REF": null, "ADM3ALT1EN": null, "Shape_Leng": 0.629079591516, "Shape_Area": 0.0183504344159, "AREA_SQKM": 222.90549506, "psgc_id": "PH0704616", "psgc_code": "0704616000", "psgc_name": "Pamplona", "psgc_status": "matched", "match_confidence": 1.0, "psgc_type": "municipality", "match_method": "exact", "name": "Pamplona", "area_type": "municipality", "center": [9.451031060272783, 123.05763238200007]}, "geometry": {"type": "Polygon", "coordinates": [[[123.11618665600008, 9.386310416000072], [123.00165385800005, 9.348538620000056], [122.94460996700002, 9.459788424000067], [122.94944779200011, 9.47347353400005], [122.99198297500004, 9.477287553000053], [122.99969684900009, 9.469495653000024], [123.09527304000005, 9.48403688600007], [123.13947856400011, 9.506946596000034], [123.14725311900008, 9.497219660000042], [123.1321867260001, 9.471933905000071], [123.11618665600008, 9.386310416000072]]]}}, {"type": "Feature", "properties": {"ADM3_EN": "San Jose", "ADM3_PCODE": "PH0704617", "ADM2_EN": "Negros Oriental", "ADM2_PCODE": "PH07046", "ADM1_EN": "Region VII (Central Visayas)", "ADM1_PCODE": "PH07", "ADM0_EN": "Philippines (the)", "ADM0_PCODE": "PH", "date": "2022-11-09", "validOn": "2023-11-06", "validTo": null, "ADM3_REF": null, "ADM3ALT1EN": null, "Shape_Leng": 0.307011382238, "Shape_Area": 0.00426352525443, "AREA_SQKM": 51.7932187786, "psgc_id": "PH0704617", "psgc_code": "0704617000", "psgc_name": "San Jose", "psgc_status": "matched", "match_confidence": 1.0, "psgc_type": "municipality", "match_method": "exact", "name": "San Jose", "area_type": "municipality", "center": [9.415967594375047, 123.21815643987509]}, "geometry": {"type": "Polygon", "coordinates": [[[123.23696931600011, 9.441973567000048], [123.2350663310001, 9.425683530000072], [123.26006754600007, 9.385425529000031], [123.18972055300003, 9.37062955600004], [123.16628401300011, 9.375627348000023], [123.19693390300006, 9.43827335800006], [123.22324054100011, 9.448154300000056], [123.23696931600011, 9.441973567000048]]]}}, {"type": "Feature", "properties": {"ADM3_EN": "Santa Catalina", "ADM3_PCODE": "PH0704618", "ADM2_EN": "Negros Oriental", "ADM2_PCODE": "PH07046", "ADM1_EN": "Region VII (Central Visayas)", "ADM1_PCODE": "PH07", "ADM0_EN": "Philippines (the)", "ADM0_PCODE": "PH", "date": "2022-11-09", "validOn": "2023-11-06", "validTo": null, "ADM3_REF": null, "ADM3ALT1EN": null, "Shape_Leng": 1.0408025097, "Shape_Area": 0.0341008605808, "AREA_SQKM": 414.381121512, "psgc_id": "PH0704618", "psgc_code": "0704618000", "psgc_name": "Santa Catalina", "psgc_status": "matched", "match_confidence": 1.0, "psgc_type": "municipality", "match_method": "exact", "name": "Santa Catalina", "area_type": "municipality", "center": [9.311550231071482, 122.93805128525005]}, "geometry": {"type": "Polygon", "coordinates": [[[123.00165385800005, 9.348538620000056], [123.00179108900011, 9.334419294000043], [123.08166440800005, 9.330947448000074], [123.03608315500003, 9.26931981000007], [123.02981073500007, 9.247035836000066], [123.01706260000003, 9.247137941000062], [122.99490452500004, 9.221380536000026], [122.98884001400006, 9.192261001000077], [122.97224419400004, 9.177062744000068], [122.95501411400005, 9.18103947700007], [122.9493110200001, 9.17043277700003], [122.90599248, 9.157579631000033], [122.87043403900009, 9.255587227000035], [122.87824470700002, 9.27055077500006], [122.874830201, 9.31563466600005], [122.87028796400011, 9.325582303000033], [122.84256475300003, 9.331542635000062], [122.829197485, 9.344381800000065], [122.86400449700011, 9.372541277000039], [122.87522028, 9.368492588000038], [122.88354796400006, 9.37508424400005], [122.88924060500005, 9.392060012000059], [122.9063685540001, 9.392121168000074], [122.91791182600002, 9.419939384000031], [122.94806525400008, 9.424074082000061], [122.9348818410001, 9.450332150000065], [122.94460996700002, 9.459788424000067], [123.00165385800005, 9.348538620000056]]]}}, {"type": "Feature", "properties": {"ADM3_EN": "Siaton", "ADM3_PCODE": "PH0704619", "ADM2_EN": "Negros Oriental", "ADM2_PCODE": "PH07046", "ADM1_EN": "Region VII (Central Visayas)", "ADM1_PCODE": "PH07", "ADM0_EN": "Philippines (the)", "ADM0_PCODE": "PH", "date": "2022-11-09", "validOn": "2023-11-06", "validTo": null, "ADM3_REF": null, "ADM3ALT1EN": null, "Shape_Leng": 1.03677690593, "Shape_Area": 0.0351791467962, "AREA_SQKM": 427.661161303, "psgc_id": "PH0704619", "psgc_code": "0704619000", "psgc_name": "Siaton", "psgc_status": "matched", "match_confidence": 1.0, "psgc_type": "municipality", "match_method": "exact", "name": "Siaton", "area_type": "municipality", "center": [9.133264176625053, 123.06675948196883]}, "geometry": {"type": "MultiPolygon", "coordinates": [[[[123.13137254600008, 9.252373625000075], [123.11073448200011, 9.220826546000069], [123.11211316300012, 9.189669801000036], [123.13527805000001, 9.105067339000072], [123.1530831340001, 9.075584250000077], [123.13027652700009, 9.04738098200005], [123.11752293800009, 9.053852670000026], [123.12675336200004, 9.054963276000024], [123.13130795600011, 9.06072899000003], [123.13141765300009, 9.063377715000058], [123.11199724700009, 9.053924175000077], [123.0738064190001, 9.066716127000063], [123.05933316000005, 9.051405207000073], [123.0331455050001, 9.04989551400007], [123.015502792, 9.03836771300007], [122.93941639000002, 9.077721306000058], [122.90877215600005, 9.137390352000068], [122.90665020800009, 9.15889880900005], [122.9493110200001, 9.17043277700003], [122.95501411400005, 9.18103947700007], [122.97264360300005, 9.177253778000022], [122.98884001400006, 9.192261001000077], [122.99490452500004, 9.221380536000026], [123.01706260000003, 9.247137941000062], [123.02981073500007, 9.247035836000066], [123.04411672600008, 9.27906179300004], [123.1240338880001, 9.262546507000025], [123.13137254600008, 9.252373625000075]]], [[[123.1501888680001, 9.069671774000028], [123.15148115700003, 9.068825808000042], [123.14885107100008, 9.067616628000053], [123.1501888680001, 9.069671774000028]]]]}}, {"type": "Feature", "properties": {"ADM3_EN": "Sibulan", "ADM3_PCODE": "PH0704620", "ADM2_EN": "Negros Oriental", "ADM2_PCODE": "PH07046", "ADM1_EN": "Region VII (Central Visayas)", "ADM1_PCODE": "PH07", "ADM0_EN": "Philippines (the)", "ADM0_PCODE": "PH", "date": "2022-11-09", "validOn": "2023-11-06", "validTo": null, "ADM3_REF": null, "ADM3ALT1EN": null, "Shape_Leng": 0.692869152531, "Shape_Area": 0.0131462907304, "AREA_SQKM": 159.72468123, "psgc_id": "PH0704620", "psgc_code": "0704620000", "psgc_name": "Sibulan", "psgc_status": "matched", "match_confidence": 1.0, "psgc_type": "municipality", "match_method": "exact", "name": "Sibulan", "area_type": "municipality", "center": [9.351796289000053, 123.16487132453852]}, "geometry": {"type": "Polygon", "coordinates": [[[123.11618665600008, 9.386310416000072], [123.18972055300003, 9.37062955600004], [123.26028886900008, 9.385421721000057], [123.26786280400006, 9.369849608000038], [123.2989281890001, 9.353885199000047], [123.31059212900004, 9.332961710000063], [123.22904425600007, 9.319347434000065], [123.17787936200011, 9.33281641900004], [123.09152839, 9.321913916000028], [123.08166440800005, 9.330947448000074], [123.00179108900011, 9.334419294000043], [123.00165385800005, 9.348538620000056], [123.11618665600008, 9.386310416000072]]]}}, {"type": "Feature", "properties": {"ADM3_EN": "Tayasan", "ADM3_PCODE": "PH0704622", "ADM2_EN": "Negros Oriental", "ADM2_PCODE": "PH07046", "ADM1_EN": "Region VII (Central Visayas)", "ADM1_PCODE": "PH07", "ADM0_EN": "Philippines (the)", "ADM0_PCODE": "PH", "date": "2022-11-09", "validOn": "2023-11-06", "validTo": null, "ADM3_REF": null, "ADM3ALT1EN": null, "Shape_Leng": 0.564199721305, "Shape_Area": 0.0146155013829, "AREA_SQKM": 177.271080228, "psgc_id": "PH0704622", "psgc_code": "0704622000", "psgc_name": "Tayasan", "psgc_status": "matched", "match_confidence": 1.0, "psgc_type": "municipality", "match_method": "exact", "name": "Tayasan", "area_type": "municipality", "center": [9.92719729908338, 123.11337595400005]}, "geometry": {"type": "Polygon", "coordinates": [[[123.18252757200003, 9.952191121000055], [123.17768608900008, 9.923573564000037], [123.15728488400009, 9.916331633000027], [123.14756536300001, 9.893741611000053], [123.14204966400007, 9.89986258600004], [123.11848065400011, 9.890748247000033], [123.07612708400006, 9.904815128000052], [123.03330588000006, 9.901511976000052], [122.98320250300003, 9.912625363000075], [123.02071005100004, 10.019722260000037], [123.1390441320001, 9.959052979000035], [123.18252757200003, 9.952191121000055]]]}}, {"type": "Feature", "properties": {"ADM3_EN": "Valencia (Luzurriaga)", "ADM3_PCODE": "PH0704623", "ADM2_EN": "Negros Oriental", "ADM2_PCODE": "PH07046", "ADM1_EN": "Region VII (Central Visayas)", "ADM1_PCODE": "PH07", "ADM0_EN": "Philippines (the)", "ADM0_PCODE": "PH", "date": "2022-11-09", "validOn": "2023-11-06", "validTo": null, "ADM3_REF": null, "ADM3ALT1EN": "Luzurriaga", "Shape_Leng": 0.545733433976, "Shape_Area": 0.0133976601841, "AREA_SQKM": 162.805992486, "psgc_id": "PH0704623", "psgc_code": "0704623000", "psgc_name": "Valencia", "psgc_status": "matched", "match_confidence": 1.0, "psgc_type": "municipality", "match_method": "exact", "name": "Valencia", "area_type": "municipality", "center": [9.29321756975005, 123.16792527241672]}, "geometry": {"type": "Polygon", "coordinates": [[[123.2517841990001, 9.323173650000058], [123.26300773800006, 9.26911737100005], [123.20500771600007, 9.259168671000054], [123.20082680900009, 9.246267143000068], [123.13573531300005, 9.24961976800006], [123.1240338880001, 9.262546507000025], [123.04411672600008, 9.27906179300004], [123.08166440800005, 9.330947448000074], [123.09152839, 9.321913916000028], [123.15410347800002, 9.332869780000067], [123.21151040500001, 9.320751140000027], [123.2517841990001, 9.323173650000058]]]}}, {"type": "Feature", "properties": {"ADM3_EN": "Vallehermoso", "ADM3_PCODE": "PH0704624", "ADM2_EN": "Negros Oriental", "ADM2_PCODE": "PH07046", "ADM1_EN": "Region VII (Central Visayas)", "ADM1_PCODE": "PH07", "ADM0_EN": "Philippines (the)", "ADM0_PCODE": "PH", "date": "2022-11-09", "validOn": "2023-11-06", "validTo": null, "ADM3_REF": null, "ADM3ALT1EN": null, "Shape_Leng": 0.417191599141, "Shape_Area": 0.00765569509175, "AREA_SQKM": 92.7431489701, "psgc_id": "PH0704624", "psgc_code": "0704624000", "psgc_name": "Vallehermoso", "psgc_status": "matched", "match_confidence": 1.0, "psgc_type": "municipality", "match_method": "exact", "name": "Vallehermoso", "area_type": "municipality", "center": [10.348514432000059, 123.29813926362505]}, "geometry": {"type": "Polygon", "coordinates": [[[123.33591507200003, 10.382476470000029], [123.32551259900004, 10.342712015000075], [123.33138616600002, 10.279242209000074], [123.28024006600003, 10.302477010000075], [123.24310202800007, 10.308539460000077], [123.25928010100006, 10.385155163000036], [123.27376300500009, 10.405036659000075], [123.33591507200003, 10.382476470000029]]]}}, {"type": "Feature", "properties": {"ADM3_EN": "Zamboanguita", "ADM3_PCODE": "PH0704625", "ADM2_EN": "Negros Oriental", "ADM2_PCODE": "PH07046", "ADM1_EN": "Region VII (Central Visayas)", "ADM1_PCODE": "PH07", "ADM0_EN": "Philippines (the)", "ADM0_PCODE": "PH", "date": "2022-11-09", "validOn": "2023-11-06", "validTo": null, "ADM3_REF": null, "ADM3ALT1EN": null, "Shape_Leng": 0.512222376018, "Shape_Area": 0.0126218628644, "AREA_SQKM": 153.433167688, "psgc_id": "PH0704625", "psgc_code": "0704625000", "psgc_name": "Zamboanguita", "psgc_status": "matched", "match_confidence": 1.0, "psgc_type": "municipality", "match_method": "exact", "name": "Zamboanguita", "area_type": "municipality", "center": [9.172270659416725, 123.16590882383339]}, "geometry": {"type": "Polygon", "coordinates": [[[123.14526169400006, 9.248740095000073], [123.18678699100008, 9.21804374100003], [123.1844800990001, 9.208346848000076], [123.23076537100007, 9.140667946000065], [123.21215551400007, 9.120556141000066], [123.20280244500009, 9.093866692000063], [123.180325, 9.093306273000053], [123.15201262200003, 9.069479931000046], [123.11613264400012, 9.158722916000045], [123.11058339800002, 9.219692562000034], [123.12433841400002, 9.247084673000074], [123.14526169400006, 9.248740095000073]]]}}, {"type": "Feature", "properties": {"ADM3_EN": "Bais City", "ADM3_PCODE": "PH0704604", "ADM2_EN": "Negros Oriental", "ADM2_PCODE": "PH07046", "ADM1_EN": "Region VII (Central Visayas)", "ADM1_PCODE": "PH07", "ADM0_EN": "Philippines (the)", "ADM0_PCODE": "PH", "date": "2022-11-09", "validOn": "2023-11-06", "validTo": null, "ADM3_REF": null, "ADM3ALT1EN": null, "Shape_Leng": 1.09499641475, "Shape_Area": 0.0207955444017, "AREA_SQKM": 252.489381186, "psgc_id": "PH0704604", "psgc_code": "0704604000", "psgc_name": "City of Bais", "psgc_status": "matched", "match_confidence": 1.0, "psgc_type": "component_city", "match_method": "exact", "name": "Bais", "area_type": "city", "center": [9.59891786337042, 123.09013551329636]}, "geometry": {"type": "MultiPolygon", "coordinates": [[[[123.11000213700004, 9.633490692000066], [123.10564315300007, 9.626475447000075], [123.11613606600008, 9.621044351000023], [123.12269581600003, 9.59914333100005], [123.12668138300012, 9.609624268000061], [123.13775522300011, 9.605202846000054], [123.1401096410001, 9.594076543000028], [123.15681384100003, 9.596127402000036], [123.15402352400008, 9.585646057000076], [123.16403742200009, 9.577586076000046], [123.15804579100006, 9.562245147000056], [123.15007787000002, 9.561746834000076], [123.15344515700008, 9.577976319000072], [123.13337840600002, 9.584890281000071], [123.11933542300005, 9.54773809300002], [123.09788862700009, 9.535243587000025], [122.8870770320001, 9.558091991000026], [122.8978196600001, 9.586401844000022], [122.8880403180001, 9.590675721000025], [122.88245193800003, 9.610831542000028], [123.02547678700012, 9.611915041000032], [123.01935995600002, 9.69390829100007], [123.11000213700004, 9.633490692000066]]], [[[123.14247708200003, 9.617275289000077], [123.14800926800001, 9.617241087000025], [123.14439811900002, 9.615418250000062], [123.14247708200003, 9.617275289000077]]]]}}, {"type": "Feature", "properties": {"ADM3_EN": "City of Bayawan (Tulong)", "ADM3_PCODE": "PH0704606", "ADM2_EN": "Negros Oriental", "ADM2_PCODE": "PH07046", "ADM1_EN": "Region VII (Central Visayas)", "ADM1_PCODE": "PH07", "ADM0_EN": "Philippines (the)", "ADM0_PCODE": "PH", "date": "2022-11-09", "validOn": "2023-11-06", "validTo": null, "ADM3_REF": null, "ADM3ALT1EN": "Tulong", "Shape_Leng": 1.30662407428, "Shape_Area": 0.0576103477223, "AREA_SQKM": 699.641268099, "psgc_id": "PH0704606", "psgc_code": "0704606000", "psgc_name": "City of Bayawan", "psgc_status": "matched", "match_confidence": 1.0, "psgc_type": "component_city", "match_method": "exact", "name": "Bayawan", "area_type": "city", "center": [9.526052842897485, 122.82501985394879]}, "geometry": {"type": "Polygon", "coordinates": [[[122.88245193800003, 9.610831542000028], [122.8880403180001, 9.590675721000025], [122.8978196600001, 9.586401844000022], [122.88701894600001, 9.55757647400003], [122.94704018300001, 9.460698448000073], [122.9348818410001, 9.450332150000065], [122.94857608200005, 9.424588862000064], [122.91791182600002, 9.419939384000031], [122.9063685540001, 9.392121168000074], [122.88924060500005, 9.392060012000059], [122.88354796400006, 9.37508424400005], [122.87522028, 9.368492588000038], [122.86400449700011, 9.372541277000039], [122.82935765700006, 9.344401523000045], [122.78301964200011, 9.366360206000024], [122.72441672600007, 9.374347415000045], [122.712945396, 9.38844403500002], [122.72226789700005, 9.409804824000048], [122.71026108, 9.416757497000049], [122.72870274400009, 9.446988582000074], [122.73004759900005, 9.467082983000068], [122.69439677300011, 9.500327156000026], [122.69737307100002, 9.523789648000047], [122.69116266900005, 9.522695654000074], [122.67264201100011, 9.550316107000071], [122.72332949600002, 9.597365594000053], [122.80384875100003, 9.700318503000062], [122.8265161280001, 9.705979107000076], [122.82821405200002, 9.700258315000042], [122.86498900400011, 9.695446657000048], [122.86542774000009, 9.684415504000071], [122.83840997800007, 9.675972241000068], [122.85150022800008, 9.654612799000063], [122.84255010400011, 9.645363119000024], [122.8487510870001, 9.647665156000073], [122.85230092000006, 9.627320161000057], [122.86407394800005, 9.635751844000026], [122.86469497100006, 9.622100987000067], [122.88245193800003, 9.610831542000028]]]}}, {"type": "Feature", "properties": {"ADM3_EN": "Canlaon City", "ADM3_PCODE": "PH0704608", "ADM2_EN": "Negros Oriental", "ADM2_PCODE": "PH07046", "ADM1_EN": "Region VII (Central Visayas)", "ADM1_PCODE": "PH07", "ADM0_EN": "Philippines (the)", "ADM0_PCODE": "PH", "date": "2022-11-09", "validOn": "2023-11-06", "validTo": null, "ADM3_REF": null, "ADM3ALT1EN": null, "Shape_Leng": 0.543048060142, "Shape_Area": 0.0121785176826, "AREA_SQKM": 147.51859433, "psgc_id": "PH0704608", "psgc_code": "0704608000", "psgc_name": "City of Canlaon", "psgc_status": "matched", "match_confidence": 1.0, "psgc_type": "component_city", "match_method": "exact", "name": "Canlaon", "area_type": "city", "center": [10.375112780142903, 123.20902604564291]}, "geometry": {"type": "Polygon", "coordinates": [[[123.27376300500009, 10.405036659000075], [123.25928010100006, 10.385155163000036], [123.24000054100009, 10.298424561000047], [123.16768247000005, 10.305539149000026], [123.1634561410001, 10.315518531000066], [123.17540434900002, 10.317057619000025], [123.18636266900012, 10.333116762000031], [123.18399075900004, 10.355762280000022], [123.13183057200001, 10.41167899100003], [123.14432497400003, 10.434843284000067], [123.23662027800003, 10.437750262000066], [123.2444814260001, 10.431866907000028], [123.24540434900007, 10.414792095000053], [123.27376300500009, 10.405036659000075]]]}}, {"type": "Feature", "properties": {"ADM3_EN": "Dumaguete City (Capital)", "ADM3_PCODE": "PH0704610", "ADM2_EN": "Negros Oriental", "ADM2_PCODE": "PH07046", "ADM1_EN": "Region VII (Central Visayas)", "ADM1_PCODE": "PH07", "ADM0_EN": "Philippines (the)", "ADM0_PCODE": "PH", "date": "2022-11-09", "validOn": "2023-11-06", "validTo": null, "ADM3_REF": null, "ADM3ALT1EN": null, "Shape_Leng": 0.228046450951, "Shape_Area": 0.00282337414025, "AREA_SQKM": 34.3080081973, "psgc_id": "PH0704610", "psgc_code": "0704610000", "psgc_name": "City of Dumaguete", "psgc_status": "matched", "match_confidence": 1.0, "psgc_type": "component_city", "match_method": "exact", "name": "Dumaguete", "area_type": "city", "center": [9.306345957333386, 123.29194476100007]}, "geometry": {"type": "Polygon", "coordinates": [[[123.30958649900003, 9.332437018000064], [123.3117982760001, 9.299349416000041], [123.30291213400005, 9.276974149000068], [123.26600095900005, 9.273704493000025], [123.2517841990001, 9.323173650000058], [123.30958649900003, 9.332437018000064]]]}}, {"type": "Feature", "properties": {"ADM3_EN": "City of Guihulngan", "ADM3_PCODE": "PH0704611", "ADM2_EN": "Negros Oriental", "ADM2_PCODE": "PH07046", "ADM1_EN": "Region VII (Central Visayas)", "ADM1_PCODE": "PH07", "ADM0_EN": "Philippines (the)", "ADM0_PCODE": "PH", "date": "2022-11-09", "validOn": "2023-11-06", "validTo": null, "ADM3_REF": null, "ADM3ALT1EN": null, "Shape_Leng": 0.86117472518, "Shape_Area": 0.0309428814755, "AREA_SQKM": 375.023143009, "psgc_id": "PH0704611", "psgc_code": "0704611000", "psgc_name": "City of Guihulngan", "psgc_status": "matched", "match_confidence": 1.0, "psgc_type": "component_city", "match_method": "exact", "name": "Guihulngan", "area_type": "city", "center": [10.231864835800055, 123.2556808341334]}, "geometry": {"type": "Polygon", "coordinates": [[[123.33138616600002, 10.279242209000074], [123.31930021200003, 10.23767108800007], [123.30433195600006, 10.22259497400006], [123.29547367900011, 10.191686171000072], [123.2855575850001, 10.18619211400005], [123.28133451300005, 10.129111451000028], [123.25245008600007, 10.06696248000003], [123.0960775320001, 10.140400846000034], [123.18881825200003, 10.260563292000029], [123.19455747000006, 10.271815747000062], [123.19119626000008, 10.303048925000041], [123.24000054100009, 10.298424561000047], [123.24310202800007, 10.308539460000077], [123.28024006600003, 10.302477010000075], [123.33138616600002, 10.279242209000074]]]}}, {"type": "Feature", "properties": {"ADM3_EN": "City of Tanjay", "ADM3_PCODE": "PH0704621", "ADM2_EN": "Negros Oriental", "ADM2_PCODE": "PH07046", "ADM1_EN": "Region VII (Central Visayas)", "ADM1_PCODE": "PH07", "ADM0_EN": "Philippines (the)", "ADM0_PCODE": "PH", "date": "2022-11-09", "validOn": "2023-11-06", "validTo": null, "ADM3_REF": null, "ADM3ALT1EN": null, "Shape_Leng": 1.03256777934, "Shape_Area": 0.018808410096, "AREA_SQKM": 228.419216598, "psgc_id": "PH0704621", "psgc_code": "0704621000", "psgc_name": "City of Tanjay", "psgc_status": "matched", "match_confidence": 1.0, "psgc_type": "component_city", "match_method": "exact", "name": "Tanjay", "area_type": "city", "center": [9.506537643757625, 123.1123716034849]}, "geometry": {"type": "MultiPolygon", "coordinates": [[[[123.11778439800003, 9.547222826000052], [123.1452607010001, 9.544249855000032], [123.14681482100002, 9.545304305000059], [123.1462591290001, 9.55338693300007], [123.14700892100007, 9.55490665800005], [123.14709806100007, 9.545005871000058], [123.15424666000001, 9.547926190000055], [123.17523076600003, 9.513810410000076], [123.18453560500006, 9.479192330000046], [123.16922476800005, 9.469412624000029], [123.16920185900005, 9.458092104000059], [123.14333021400012, 9.427092767000033], [123.13992360000009, 9.411166326000057], [123.11618665600008, 9.386310416000072], [123.1321867260001, 9.471933905000071], [123.14725311900008, 9.497219660000042], [123.14287890500009, 9.504618806000053], [123.13418652400003, 9.508154689000037], [123.13099306100003, 9.498413929000037], [123.1138880210001, 9.49756222600007], [123.11768519800012, 9.490855063000026], [123.10639272200001, 9.486766294000063], [123.02247249200002, 9.471718975000044], [122.95048821300009, 9.473945421000053], [122.94704018300001, 9.460698448000073], [122.8869982010001, 9.557797410000035], [123.07631306100006, 9.534859538000035], [123.09788862700009, 9.535243587000025], [123.11778439800003, 9.547222826000052]]], [[[123.12062482800002, 9.54863778500004], [123.11984247700002, 9.549154571000031], [123.12061517200004, 9.54922171100003], [123.12062482800002, 9.54863778500004]]]]}}]}